start=new Date('2023-04-29T00:00:00.000Z').valueOf();
sats=[{"MEAN_ANOMALY":"287.0330","GP_ID":"230886670","BSTAR":"0.00011270000000","APOAPSIS":"540.525","DECAY_DATE":null,"TIME_SYSTEM":"UTC","ARG_OF_PERICENTER":"73.0789","TLE_LINE1":"1 52296U 22041AM  23118.27427005  .00001507  00000-0  11270-3 0  9992","OBJECT_ID":"2022-041AM","SITE":"AFETR","SEMIMAJOR_AXIS":"6917.861","MEAN_MOTION":"15.08846243","CLASSIFICATION_TYPE":"U","INCLINATION":"53.2154","REF_FRAME":"TEME","TLE_LINE2":"2 52296  53.2154 116.6583 0001155  73.0789 287.0330 15.08846243 56535","PERIAPSIS":"538.927","PERIOD":"95.437","EPHEMERIS_TYPE":"0","REV_AT_EPOCH":"5653","ELEMENT_SET_NO":"999","MEAN_ELEMENT_THEORY":"SGP4","RCS_SIZE":"LARGE","EPOCH":"2023-04-28T06:34:56.932320","OBJECT_TYPE":"PAYLOAD","NORAD_CAT_ID":"52296","ECCENTRICITY":"0.00011550","MEAN_MOTION_DDOT":"0.0000000000000","COUNTRY_CODE":"US","OBJECT_NAME":"STARLINK-3766","LAUNCH_DATE":"2022-04-21","MEAN_MOTION_DOT":"0.00001507","FILE":"3895770","CENTER_NAME":"EARTH","RA_OF_ASC_NODE":"116.6583"},{"GP_ID":"230887419","MEAN_ANOMALY":"287.9483","APOAPSIS":"540.637","DECAY_DATE":null,"TIME_SYSTEM":"UTC","BSTAR":"0.00005057000000","SITE":"AFETR","TLE_LINE1":"1 52297U 22041AN  23118.29267618  .00000517  00000-0  50570-4 0  9994","ARG_OF_PERICENTER":"72.1649","OBJECT_ID":"2022-041AN","CLASSIFICATION_TYPE":"U","TLE_LINE2":"2 52297  53.2159 116.5785 0001281  72.1649 287.9483 15.08838370 56539","PERIAPSIS":"538.864","REF_FRAME":"TEME","INCLINATION":"53.2159","SEMIMAJOR_AXIS":"6917.885","MEAN_MOTION":"15.08838370","EPHEMERIS_TYPE":"0","ELEMENT_SET_NO":"999","REV_AT_EPOCH":"5653","PERIOD":"95.438","OBJECT_TYPE":"PAYLOAD","EPOCH":"2023-04-28T07:01:27.221952","NORAD_CAT_ID":"52297","MEAN_ELEMENT_THEORY":"SGP4","RCS_SIZE":"LARGE","COUNTRY_CODE":"US","ECCENTRICITY":"0.00012810","MEAN_MOTION_DDOT":"0.0000000000000","FILE":"3895770","MEAN_MOTION_DOT":"0.00000517","RA_OF_ASC_NODE":"116.5785","CENTER_NAME":"EARTH","LAUNCH_DATE":"2022-04-21","OBJECT_NAME":"STARLINK-3758"},{"SITE":"AFETR","TLE_LINE1":"1 52298U 22041AP  23118.47026950  .00007713  00000-0  50187-3 0  9995","ARG_OF_PERICENTER":"67.9050","OBJECT_ID":"2022-041AP","CLASSIFICATION_TYPE":"U","INCLINATION":"53.2157","TLE_LINE2":"2 52298  53.2157 115.7866 0001236  67.9050 292.2074 15.08863381 56565","PERIAPSIS":"538.819","REF_FRAME":"TEME","SEMIMAJOR_AXIS":"6917.809","MEAN_MOTION":"15.08863381","GP_ID":"230885669","MEAN_ANOMALY":"292.2074","DECAY_DATE":null,"APOAPSIS":"540.529","TIME_SYSTEM":"UTC","BSTAR":"0.00050187000000","COUNTRY_CODE":"US","ECCENTRICITY":"0.00012360","MEAN_MOTION_DDOT":"0.0000000000000","FILE":"3895770","MEAN_MOTION_DOT":"0.00007713","CENTER_NAME":"EARTH","RA_OF_ASC_NODE":"115.7866","OBJECT_NAME":"STARLINK-3760","LAUNCH_DATE":"2022-04-21","EPHEMERIS_TYPE":"0","REV_AT_EPOCH":"5656","ELEMENT_SET_NO":"999","PERIOD":"95.436","EPOCH":"2023-04-28T11:17:11.284800","OBJECT_TYPE":"PAYLOAD","NORAD_CAT_ID":"52298","MEAN_ELEMENT_THEORY":"SGP4","RCS_SIZE":"LARGE"},{"BSTAR":"0.00012203000000","TIME_SYSTEM":"UTC","DECAY_DATE":null,"APOAPSIS":"540.633","MEAN_ANOMALY":"284.7599","GP_ID":"230885919","MEAN_MOTION":"15.08845673","SEMIMAJOR_AXIS":"6917.863","PERIAPSIS":"538.823","TLE_LINE2":"2 52299  53.2153 116.6431 0001308  75.3538 284.7599 15.08845673 56533","REF_FRAME":"TEME","INCLINATION":"53.2153","CLASSIFICATION_TYPE":"U","OBJECT_ID":"2022-041AQ","TLE_LINE1":"1 52299U 22041AQ  23118.27795337  .00001655  00000-0  12203-3 0  9992","ARG_OF_PERICENTER":"75.3538","SITE":"AFETR","RCS_SIZE":"LARGE","MEAN_ELEMENT_THEORY":"SGP4","NORAD_CAT_ID":"52299","OBJECT_TYPE":"PAYLOAD","EPOCH":"2023-04-28T06:40:15.171168","PERIOD":"95.437","ELEMENT_SET_NO":"999","REV_AT_EPOCH":"5653","EPHEMERIS_TYPE":"0","LAUNCH_DATE":"2022-04-21","OBJECT_NAME":"STARLINK-3759","RA_OF_ASC_NODE":"116.6431","CENTER_NAME":"EARTH","FILE":"3895770","MEAN_MOTION_DOT":"0.00001655","MEAN_MOTION_DDOT":"0.0000000000000","ECCENTRICITY":"0.00013080","COUNTRY_CODE":"US"},{"PERIOD":"95.437","REV_AT_EPOCH":"5778","ELEMENT_SET_NO":"999","EPHEMERIS_TYPE":"0","RCS_SIZE":"LARGE","MEAN_ELEMENT_THEORY":"SGP4","NORAD_CAT_ID":"52300","EPOCH":"2023-04-28T11:05:13.629120","OBJECT_TYPE":"PAYLOAD","MEAN_MOTION_DDOT":"0.0000000000000","ECCENTRICITY":"0.00014510","COUNTRY_CODE":"US","OBJECT_NAME":"STARLINK-3769","LAUNCH_DATE":"2022-04-21","CENTER_NAME":"EARTH","RA_OF_ASC_NODE":"115.8170","FILE":"3895770","MEAN_MOTION_DOT":"0.00003684","MEAN_ANOMALY":"277.8759","GP_ID":"230887169","BSTAR":"0.00024943000000","TIME_SYSTEM":"UTC","DECAY_DATE":null,"APOAPSIS":"540.736","OBJECT_ID":"2022-041AR","ARG_OF_PERICENTER":"82.2398","TLE_LINE1":"1 52300U 22041AR  23118.46196330  .00003684  00000-0  24943-3 0  9992","SITE":"AFETR","MEAN_MOTION":"15.08844470","SEMIMAJOR_AXIS":"6917.867","INCLINATION":"53.2161","TLE_LINE2":"2 52300  53.2161 115.8170 0001451  82.2398 277.8759 15.08844470 57789","REF_FRAME":"TEME","PERIAPSIS":"538.728","CLASSIFICATION_TYPE":"U"},{"BSTAR":"-0.00007559300000","TIME_SYSTEM":"UTC","DECAY_DATE":null,"APOAPSIS":"540.981","MEAN_ANOMALY":"278.5845","GP_ID":"230893556","MEAN_MOTION":"15.08835570","SEMIMAJOR_AXIS":"6917.894","TLE_LINE2":"2 52301  53.2162 114.8398 0001767  81.5347 278.5845 15.08835570 57806","PERIAPSIS":"538.537","REF_FRAME":"TEME","INCLINATION":"53.2162","CLASSIFICATION_TYPE":"U","OBJECT_ID":"2022-041AS","TLE_LINE1":"1 52301U 22041AS  23118.67907713 -.00001491  00000-0 -75593-4 0  9995","ARG_OF_PERICENTER":"81.5347","SITE":"AFETR","RCS_SIZE":"LARGE","MEAN_ELEMENT_THEORY":"SGP4","NORAD_CAT_ID":"52301","OBJECT_TYPE":"PAYLOAD","EPOCH":"2023-04-28T16:17:52.264032","PERIOD":"95.438","ELEMENT_SET_NO":"999","REV_AT_EPOCH":"5780","EPHEMERIS_TYPE":"0","LAUNCH_DATE":"2022-04-21","OBJECT_NAME":"STARLINK-3768","RA_OF_ASC_NODE":"114.8398","CENTER_NAME":"EARTH","FILE":"3895910","MEAN_MOTION_DOT":"-0.00001491","MEAN_MOTION_DDOT":"0.0000000000000","ECCENTRICITY":"0.00017670","COUNTRY_CODE":"US"},{"MEAN_MOTION_DDOT":"0.0000000000000","ECCENTRICITY":"0.00014920","COUNTRY_CODE":"US","LAUNCH_DATE":"2022-04-21","OBJECT_NAME":"STARLINK-3564","RA_OF_ASC_NODE":"104.9708","CENTER_NAME":"EARTH","FILE":"3895941","MEAN_MOTION_DOT":"-0.00004417","PERIOD":"95.438","ELEMENT_SET_NO":"999","REV_AT_EPOCH":"5793","EPHEMERIS_TYPE":"0","RCS_SIZE":"LARGE","MEAN_ELEMENT_THEORY":"SGP4","NORAD_CAT_ID":"52302","OBJECT_TYPE":"PAYLOAD","EPOCH":"2023-04-28T15:36:47.398176","OBJECT_ID":"2022-041AT","TLE_LINE1":"1 52302U 22041AT  23118.65054859 -.00004417  00000-0 -25970-3 0  9992","ARG_OF_PERICENTER":"98.7946","SITE":"AFETR","MEAN_MOTION":"15.08826769","SEMIMAJOR_AXIS":"6917.921","REF_FRAME":"TEME","TLE_LINE2":"2 52302  53.2163 104.9708 0001492  98.7946 261.3216 15.08826769 57939","PERIAPSIS":"538.754","INCLINATION":"53.2163","CLASSIFICATION_TYPE":"U","MEAN_ANOMALY":"261.3216","GP_ID":"230894019","BSTAR":"-0.00025970000000","TIME_SYSTEM":"UTC","APOAPSIS":"540.818","DECAY_DATE":null},{"MEAN_ANOMALY":"265.0299","GP_ID":"230886419","BSTAR":"0.00011753000000","TIME_SYSTEM":"UTC","APOAPSIS":"540.586","DECAY_DATE":null,"OBJECT_ID":"2022-041AU","ARG_OF_PERICENTER":"95.0833","TLE_LINE1":"1 52303U 22041AU  23118.26691754  .00001583  00000-0  11753-3 0  9994","SITE":"AFETR","MEAN_MOTION":"15.08841539","SEMIMAJOR_AXIS":"6917.876","INCLINATION":"53.2148","PERIAPSIS":"538.895","TLE_LINE2":"2 52303  53.2148 116.6917 0001222  95.0833 265.0299 15.08841539 57755","REF_FRAME":"TEME","CLASSIFICATION_TYPE":"U","PERIOD":"95.437","REV_AT_EPOCH":"5775","ELEMENT_SET_NO":"999","EPHEMERIS_TYPE":"0","RCS_SIZE":"LARGE","MEAN_ELEMENT_THEORY":"SGP4","NORAD_CAT_ID":"52303","EPOCH":"2023-04-28T06:24:21.675456","OBJECT_TYPE":"PAYLOAD","MEAN_MOTION_DDOT":"0.0000000000000","ECCENTRICITY":"0.00012220","COUNTRY_CODE":"US","OBJECT_NAME":"STARLINK-3742","LAUNCH_DATE":"2022-04-21","CENTER_NAME":"EARTH","RA_OF_ASC_NODE":"116.6917","FILE":"3895770","MEAN_MOTION_DOT":"0.00001583"},{"SEMIMAJOR_AXIS":"6917.866","MEAN_MOTION":"15.08844788","CLASSIFICATION_TYPE":"U","INCLINATION":"53.2161","PERIAPSIS":"538.844","TLE_LINE2":"2 52304  53.2161 106.7684 0001282  79.6067 280.5069 15.08844788 56660","REF_FRAME":"TEME","ARG_OF_PERICENTER":"79.6067","TLE_LINE1":"1 52304U 22041AV  23118.24942862  .00001520  00000-0  11356-3 0  9992","OBJECT_ID":"2022-041AV","SITE":"AFETR","BSTAR":"0.00011356000000","DECAY_DATE":null,"APOAPSIS":"540.618","TIME_SYSTEM":"UTC","MEAN_ANOMALY":"280.5069","GP_ID":"230886671","OBJECT_NAME":"STARLINK-3744","LAUNCH_DATE":"2022-04-21","FILE":"3895770","MEAN_MOTION_DOT":"0.00001520","CENTER_NAME":"EARTH","RA_OF_ASC_NODE":"106.7684","ECCENTRICITY":"0.00012820","MEAN_MOTION_DDOT":"0.0000000000000","COUNTRY_CODE":"US","MEAN_ELEMENT_THEORY":"SGP4","RCS_SIZE":"LARGE","EPOCH":"2023-04-28T05:59:10.632768","OBJECT_TYPE":"PAYLOAD","NORAD_CAT_ID":"52304","PERIOD":"95.437","EPHEMERIS_TYPE":"0","REV_AT_EPOCH":"5666","ELEMENT_SET_NO":"999"},{"DECAY_DATE":null,"APOAPSIS":"540.639","TIME_SYSTEM":"UTC","BSTAR":"0.00014014000000","GP_ID":"230887420","MEAN_ANOMALY":"276.0068","CLASSIFICATION_TYPE":"U","TLE_LINE2":"2 52305  53.2167 115.8855 0001334  84.1076 276.0068 15.08849711 56566","PERIAPSIS":"538.793","REF_FRAME":"TEME","INCLINATION":"53.2167","SEMIMAJOR_AXIS":"6917.851","MEAN_MOTION":"15.08849711","SITE":"AFETR","TLE_LINE1":"1 52305U 22041AW  23118.46932073  .00001944  00000-0  14014-3 0  9994","ARG_OF_PERICENTER":"84.1076","OBJECT_ID":"2022-041AW","OBJECT_TYPE":"PAYLOAD","EPOCH":"2023-04-28T11:15:49.311072","NORAD_CAT_ID":"52305","MEAN_ELEMENT_THEORY":"SGP4","RCS_SIZE":"LARGE","EPHEMERIS_TYPE":"0","ELEMENT_SET_NO":"999","REV_AT_EPOCH":"5656","PERIOD":"95.437","MEAN_MOTION_DOT":"0.00001944","FILE":"3895770","RA_OF_ASC_NODE":"115.8855","CENTER_NAME":"EARTH","LAUNCH_DATE":"2022-04-21","OBJECT_NAME":"STARLINK-3724","COUNTRY_CODE":"US","ECCENTRICITY":"0.00013340","MEAN_MOTION_DDOT":"0.0000000000000"}];
